[
  {
    "isDelivered": false,
    "location": {
      "address": "Carrer de l\u0027Arquitecte Arnau,55,46020 València,Valencia,Spain",
      "city": "",
      "latitude": 39.485826,
      "longitude": -0.35638,
      "zipCode": 46020
    },
    "note": "",
    "numPackage": 0,
    "urgency": "NOT_URGENT"
  },
  {
    "isDelivered": false,
    "location": {
      "address": "Carrer del Reverend José Maria Pinazo,58,46020 València,Valencia,Spain",
      "city": "",
      "latitude": 39.488277,
      "longitude": -0.364695,
      "zipCode": 46020
    },
    "note": "",
    "numPackage": 5,
    "urgency": "NOT_URGENT"
  },
  {
    "isDelivered": false,
    "location": {
      "address": "Carrer de l\u0027Historiador Chabret,3,46019 València,Valencia,Spain",
      "city": "",
      "latitude": 39.492425,
      "longitude": -0.368503,
      "zipCode": 46020
    },
    "note": "",
    "numPackage": 2,
    "urgency": "NOT_URGENT"
  },
  {
    "isDelivered": false,
    "location": {
      "address": "Carrer d\u0027Emili Baró,67,46020 València,Valencia,Spain",
      "city": "",
      "latitude": 39.488724,
      "longitude": -0.360403,
      "zipCode": 46020
    },
    "note": "",
    "numPackage": 4,
    "urgency": "NOT_URGENT"
  },
  {
    "isDelivered": false,
    "location": {
      "address": "Carrer de l\u0027Arquitecte Tolsà,1319,46019 València,Valencia,Spain",
      "city": "",
      "latitude": 39.491978,
      "longitude": -0.365413,
      "zipCode": 46020
    },
    "note": "",
    "numPackage": 8,
    "urgency": "NOT_URGENT"
  },
  {
    "isDelivered": false,
    "location": {
      "address": "Carrer d\u0027Agustín Lara,8,46019 València,Valencia,Spain",
      "city": "",
      "latitude": 39.493444,
      "longitude": -0.370982,
      "zipCode": 46020
    },
    "note": "",
    "numPackage": 9,
    "urgency": "NOT_URGENT"
  },
  {
    "isDelivered": false,
    "location": {
      "address": "Carrer del Poeta Asins,5,46020 València,Valencia,Spain",
      "city": "",
      "latitude": 39.487333,
      "longitude": -0.360446,
      "zipCode": 46020
    },
    "note": "",
    "numPackage": 1,
    "urgency": "NOT_URGENT"
  },
  {
    "isDelivered": false,
    "location": {
      "address": "C. del Músic Hipòlit Martínez,2,46020 València,Valencia,Spain",
      "city": "",
      "latitude": 39.484642,
      "longitude": -0.356584,
      "zipCode": 46020
    },
    "note": "",
    "numPackage": 3,
    "urgency": "NOT_URGENT"
  },
  {
    "isDelivered": false,
    "location": {
      "address": "Benimaclet,46020 Valencia,Spain",
      "city": "",
      "latitude": 39.485007,
      "longitude": -0.36286,
      "zipCode": 46020
    },
    "note": "",
    "numPackage": 7,
    "urgency": "NOT_URGENT"
  },
  {
    "isDelivered": false,
    "location": {
      "address": "Carrer d\u0027Emili Baró,84,46020 València,Valencia,Spain",
      "city": "",
      "latitude": 39.490828,
      "longitude": -0.359287,
      "zipCode": 46020
    },
    "note": "",
    "numPackage": 6,
    "urgency": "NOT_URGENT"
  },
  {
    "isDelivered": false,
    "location": {
      "address": "Carrer d\u0027Enric Navarro,27D,46020 València,Valencia,Spain",
      "city": "DEFAULT",
      "latitude": 39.484783,
      "longitude": -0.357935,
      "zipCode": 46020
    },
    "note": "",
    "numPackage": 0,
    "urgency": "NOT_URGENT"
  },
  {
    "isDelivered": false,
    "location": {
      "address": "Carrer de Viver,100,46020 València,Valencia,Spain",
      "city": "DEFAULT",
      "latitude": 39.488277,
      "longitude": -0.363514,
      "zipCode": 46020
    },
    "note": "",
    "numPackage": 2,
    "urgency": "NOT_URGENT"
  },
  {
    "isDelivered": false,
    "location": {
      "address": "Carrer de Santiago Rusiñol,30,46019 València,Valencia,Spain",
      "city": "DEFAULT",
      "latitude": 39.492699,
      "longitude": -0.362978,
      "zipCode": 46020
    },
    "note": "",
    "numPackage": 3,
    "urgency": "NOT_URGENT"
  },
  {
    "isDelivered": false,
    "location": {
      "address": "Plaça Num 85 Res Urb,26,46020 València,Valencia,Spain",
      "city": "DEFAULT",
      "latitude": 39.491192,
      "longitude": -0.360339,
      "zipCode": 46020
    },
    "note": "",
    "numPackage": 5,
    "urgency": "NOT_URGENT"
  },
  {
    "isDelivered": false,
    "location": {
      "address": "Carrer de la Murta,37,46020 València,Valencia,Spain",
      "city": "DEFAULT",
      "latitude": 39.485942,
      "longitude": -0.356305,
      "zipCode": 46020
    },
    "note": "",
    "numPackage": 7,
    "urgency": "NOT_URGENT"
  },

  {
    "isDelivered": false,
    "location": {
      "address": "Carrer de Ramón Asensio,8,46020 València,Valencia,Spain",
      "city": "DEFAULT",
      "latitude": 39.482746,
      "longitude": -0.358064,
      "zipCode": 46020
    },
    "note": "",
    "numPackage": 9,
    "urgency": "NOT_URGENT"
  },
  {
    "isDelivered": false,
    "location": {
      "address": "Carrer de Cuenca Tramoyeres,25,46020 València,Valencia,Spain",
      "city": "DEFAULT",
      "latitude": 39.484021,
      "longitude": -0.360961,
      "zipCode": 46020
    },
    "note": "",
    "numPackage": 10,
    "urgency": "NOT_URGENT"
  },
  {
    "isDelivered": false,
    "location": {
      "address": "Plaça dels Germans Bécquer,6,46019 València,Valencia,Spain",
      "city": "DEFAULT",
      "latitude": 39.490496,
      "longitude": -0.368857,
      "zipCode": 46020
    },
    "note": "",
    "numPackage": 11,
    "urgency": "NOT_URGENT"
  },
  {
    "isDelivered": false,
    "location": {
      "address": "C. de Santa Genoveva Torres,19,46019 València,Valencia,Spain",
      "city": "DEFAULT",
      "latitude": 39.493229,
      "longitude": -0.362999,
      "zipCode": 46020
    },
    "note": "",
    "numPackage": 13,
    "urgency": "NOT_URGENT"
  },
  {
    "isDelivered": false,
    "location": {
      "address": "Carrer de Portaceli,33,46019 València,Valencia,Spain",
      "city": "DEFAULT",
      "latitude": 39.49038,
      "longitude": -0.370231,
      "zipCode": 46020
    },
    "note": "",
    "numPackage": 14,
    "urgency": "NOT_URGENT"
  }
]