[
  {
    "isDelivered": false,
    "location": {
      "address": "Carrer Comandant Cirujeda,4,46691 Vallada,Valencia,Spain",
      "city": "DEFAULT",
      "latitude": 38.895091,
      "longitude": -0.691592,
      "zipCode": 46020
    },
    "note": "",
    "numPackage": 5,
    "urgency": "NOT_URGENT"
  },
  {
    "isDelivered": false,
    "location": {
      "address": "Av. la Constitución,52,46640 Mogente,Valencia,Spain",
      "city": "DEFAULT",
      "latitude": 38.875386,
      "longitude": -0.746829,
      "zipCode": 46020
    },
    "note": "",
    "numPackage": 7,
    "urgency": "NOT_URGENT"
  },
  {
    "isDelivered": false,
    "location": {
      "address": "Av. la Constitución,26,46640 Mogente,Valencia,Spain",
      "city": "DEFAULT",
      "latitude": 38.875232,
      "longitude": -0.7489,
      "zipCode": 46020
    },
    "note": "",
    "numPackage": 4,
    "urgency": "NOT_URGENT"
  },
  {
    "isDelivered": false,
    "location": {
      "address": "C. Poeta Gabriel Vila,34,46640 Mogente,Valencia,Spain",
      "city": "DEFAULT",
      "latitude": 38.876246,
      "longitude": -0.748503,
      "zipCode": 46020
    },
    "note": "",
    "numPackage": 2,
    "urgency": "NOT_URGENT"
  },
  {
    "isDelivered": false,
    "location": {
      "address": "Carrer General Cirugeda,23,46640 Moixent,Valencia,Spain",
      "city": "DEFAULT",
      "latitude": 38.876096,
      "longitude": -0.750686,
      "zipCode": 46020
    },
    "note": "",
    "numPackage": 9,
    "urgency": "NOT_URGENT"
  },
  {
    "isDelivered": false,
    "location": {
      "address": "C. Nueva,21,46640 Mogente,Valencia,Spain",
      "city": "DEFAULT",
      "latitude": 38.872713,
      "longitude": -0.754302,
      "zipCode": 46020
    },
    "note": "",
    "numPackage": 1,
    "urgency": "NOT_URGENT"
  },
  {
    "isDelivered": false,
    "location": {
      "address": "Avinguda de Silverio Perfecto Sanz Navarro,19,46692 Montesa,Valencia,Spain",
      "city": "DEFAULT",
      "latitude": 38.948763,
      "longitude": -0.649738,
      "zipCode": 46020
    },
    "note": "",
    "numPackage": 8,
    "urgency": "NOT_URGENT"
  },
  {
    "isDelivered": false,
    "location": {
      "address": "Carrer de Sant Antoni,6,46692 Montesa,Valencia,Spain",
      "city": "DEFAULT",
      "latitude": 38.949764,
      "longitude": -0.651648,
      "zipCode": 46020
    },
    "note": "",
    "numPackage": 6,
    "urgency": "NOT_URGENT"
  },
  {
    "isDelivered": false,
    "location": {
      "address": "Carrer Portal de Villena,18,46630 La Font de la Figuera,Valencia,Spain",
      "city": "DEFAULT",
      "latitude": 38.804918,
      "longitude": -0.879529,
      "zipCode": 46020
    },
    "note": "",
    "numPackage": 0,
    "urgency": "NOT_URGENT"
  },
  {
    "isDelivered": false,
    "location": {
      "address": "Carrer en Gonzalo García,45,46630 La Font de la Figuera,Valencia,Spain",
      "city": "DEFAULT",
      "latitude": 38.806607,
      "longitude": -0.87882,
      "zipCode": 46020
    },
    "note": "",
    "numPackage": 3,
    "urgency": "NOT_URGENT"
  }
]
